IRIDIUM 921             
1 24873U 97034E   24117.77736615  .00048365  00000+0  13803-2 0  9996
2 24873  86.3793 313.5135 0005670  90.3356 269.8545 15.35827793467283
IRIDIUM 26              
1 24903U 97043A   24117.49842188  .00001305  00000+0  44016-3 0  9996
2 24903  86.3907 285.4552 0002223  85.0363 275.1088 14.36309257396917
IRIDIUM 22              
1 24907U 97043E   24117.72328982  .00001220  00000+0  42007-3 0  9991
2 24907  86.3911 288.5594 0002094  91.2829 268.8608 14.35200579397024
DUMMY MASS 1            
1 24925U 97048A   24117.82021595  .00000997  00000+0  11052-3 0  9993
2 24925  86.3332 327.7395 0007101 162.6769 197.4699 14.86159164443271
DUMMY MASS 2            
1 24926U 97048B   24117.84849312  .00001065  00000+0  11892-3 0  9990
2 24926  86.3335 329.2602 0007403 174.9983 185.1317 14.85918463443064
IRIDIUM 29              
1 24944U 97051A   24117.81194268  .00000952  00000+0  32333-3 0  9991
2 24944  86.3929 318.4595 0002139  95.2058 264.9383 14.35653785393514
IRIDIUM 33              
1 24946U 97051C   24117.58145961  .00000684  00000+0  23654-3 0  9991
2 24946  86.3843 317.8110 0008137  13.6193 346.5221 14.34325740393014
IRIDIUM 28              
1 24948U 97051E   24117.64090682  .00001002  00000+0  33436-3 0  9993
2 24948  86.3931 316.2844 0002287  79.3888 280.7567 14.36603129394027
